[{"OBJECT_NAME":"KUIPER-00126","OBJECT_ID":"2025-228J","EPOCH":"2026-03-09T04:31:57.445248","MEAN_MOTION":14.79934112,"ECCENTRICITY":9.562e-5,"INCLINATION":51.9024,"RA_OF_ASC_NODE":2.8184,"ARG_OF_PERICENTER":103.8093,"MEAN_ANOMALY":256.2976,"EPHEMERIS_TYPE":0,"CLASSIFICATION_TYPE":"U","NORAD_CAT_ID":65955,"ELEMENT_SET_NO":999,"REV_AT_EPOCH":2315,"BSTAR":0.00032955601,"MEAN_MOTION_DOT":2.292e-5,"MEAN_MOTION_DDOT":0},{"OBJECT_NAME":"FENGYUN 1C DEB","OBJECT_ID":"1999-025DUT","EPOCH":"2026-03-03T01:10:20.385984","MEAN_MOTION":14.72266949,"ECCENTRICITY":0.00720136,"INCLINATION":99.0747,"RA_OF_ASC_NODE":277.2706,"ARG_OF_PERICENTER":46.5612,"MEAN_ANOMALY":314.1554,"EPHEMERIS_TYPE":0,"CLASSIFICATION_TYPE":"U","NORAD_CAT_ID":36218,"ELEMENT_SET_NO":999,"REV_AT_EPOCH":60324,"BSTAR":0.00092678176,"MEAN_MOTION_DOT":6.036e-5,"MEAN_MOTION_DDOT":0}]
